ONEWEB-0116             
1 48046U 21025E   26136.89380954  .00000322  00000+0  84814-3 0  9990
2 48046  87.8952 326.4501 0001886  86.5368 273.5977 13.13471196249543
ONEWEB-0150             
1 48047U 21025F   26136.94628066 -.00000248  00000+0 -71406-3 0  9998
2 48047  87.8951 326.4375 0001874  95.9965 264.1378 13.13471658249449
ONEWEB-0107             
1 48048U 21025G   26136.79560541 -.00000362  00000+0 -10273-2 0  9996
2 48048  87.8951 326.4631 0001605  96.0024 264.1288 13.13470087249406
ONEWEB-0101             
1 48049U 21025H   26136.75837552  .00000193  00000+0  49468-3 0  9991
2 48049  87.8945 326.4892 0001620  88.6713 271.4602 13.13467904249379
ONEWEB-0113             
1 48050U 21025J   26136.94519519 -.00000238  00000+0 -68268-3 0  9995
2 48050  87.8946 326.3654 0001850  91.7719 268.3623 13.13895965249508
ONEWEB-0112             
1 48051U 21025K   26136.95305690 -.00000100  00000+0 -30927-3 0  9999
2 48051  87.8950 326.4294 0001552  89.0193 271.1114 13.13471304249492
ONEWEB-0156             
1 48052U 21025L   26136.96151852  .00000131  00000+0  32425-3 0  9997
2 48052  87.8949 326.4379 0001757  94.4121 265.7209 13.13471908249475
ONEWEB-0161             
1 48053U 21025M   26137.08847112 -.00000534  00000+0 -14970-2 0  9996
2 48053  87.8942 326.4158 0001692  95.2535 264.8788 13.13469608249421
ONEWEB-0158             
1 48054U 21025N   26136.97166758  .00000282  00000+0  73724-3 0  9995
2 48054  87.8948 326.4351 0001921  80.6677 279.4669 13.13471428249538
ONEWEB-0157             
1 48055U 21025P   26136.99706029  .00000001  00000+0 -30969-4 0  9994
2 48055  87.8956 326.4352 0001449  98.9387 261.1906 13.13468092249472
ONEWEB-0162             
1 48056U 21025Q   26136.97322274  .00000300  00000+0  78777-3 0  9998
2 48056  87.8948 326.4422 0001844  94.3533 265.7806 13.13471722249444
ONEWEB-0155             
1 48057U 21025R   26136.98013197  .00000284  00000+0  74187-3 0  9993
2 48057  87.8945 326.4369 0001603  89.6430 270.4883 13.13470989249585
ONEWEB-0149             
1 48058U 21025S   26136.92596984 -.00000180  00000+0 -52659-3 0  9995
2 48058  87.8954 326.4498 0001895  95.8183 264.3162 13.13470433249380
ONEWEB-0148             
1 48059U 21025T   26136.81254066  .00000245  00000+0  63555-3 0  9993
2 48059  87.8941 326.4816 0002026 106.4847 253.6505 13.13472033249496
ONEWEB-0160             
1 48060U 21025U   26136.82948735  .00000268  00000+0  69984-3 0  9996
2 48060  87.8946 326.4745 0002362  77.4230 282.7163 13.13470723249442
ONEWEB-0163             
1 48061U 21025V   26136.96659479  .00000224  00000+0  57949-3 0  9996
2 48061  87.8940 326.4400 0001551  95.6129 264.5177 13.13469076249580
