[{"OBJECT_NAME":"ONEWEB-0116","OBJECT_ID":"2021-025E","EPOCH":"2026-05-16T21:27:05.144256","MEAN_MOTION":13.13471196,"ECCENTRICITY":0.0001886,"INCLINATION":87.8952,"RA_OF_ASC_NODE":326.4501,"ARG_OF_PERICENTER":86.5368,"MEAN_ANOMALY":273.5977,"EPHEMERIS_TYPE":0,"CLASSIFICATION_TYPE":"U","NORAD_CAT_ID":48046,"ELEMENT_SET_NO":999,"REV_AT_EPOCH":24954,"BSTAR":0.00084814,"MEAN_MOTION_DOT":3.22e-06,"MEAN_MOTION_DDOT":0.0},{"OBJECT_NAME":"ONEWEB-0150","OBJECT_ID":"2021-025F","EPOCH":"2026-05-16T22:42:38.649024","MEAN_MOTION":13.13471658,"ECCENTRICITY":0.0001874,"INCLINATION":87.8951,"RA_OF_ASC_NODE":326.4375,"ARG_OF_PERICENTER":95.9965,"MEAN_ANOMALY":264.1378,"EPHEMERIS_TYPE":0,"CLASSIFICATION_TYPE":"U","NORAD_CAT_ID":48047,"ELEMENT_SET_NO":999,"REV_AT_EPOCH":24944,"BSTAR":-0.0007140600000000001,"MEAN_MOTION_DOT":-2.48e-06,"MEAN_MOTION_DDOT":0.0},{"OBJECT_NAME":"ONEWEB-0107","OBJECT_ID":"2021-025G","EPOCH":"2026-05-16T19:05:40.307424","MEAN_MOTION":13.13470087,"ECCENTRICITY":0.0001605,"INCLINATION":87.8951,"RA_OF_ASC_NODE":326.4631,"ARG_OF_PERICENTER":96.0024,"MEAN_ANOMALY":264.1288,"EPHEMERIS_TYPE":0,"CLASSIFICATION_TYPE":"U","NORAD_CAT_ID":48048,"ELEMENT_SET_NO":999,"REV_AT_EPOCH":24940,"BSTAR":-0.0010273,"MEAN_MOTION_DOT":-3.62e-06,"MEAN_MOTION_DDOT":0.0},{"OBJECT_NAME":"ONEWEB-0101","OBJECT_ID":"2021-025H","EPOCH":"2026-05-16T18:12:03.644928","MEAN_MOTION":13.13467904,"ECCENTRICITY":0.000162,"INCLINATION":87.8945,"RA_OF_ASC_NODE":326.4892,"ARG_OF_PERICENTER":88.6713,"MEAN_ANOMALY":271.4602,"EPHEMERIS_TYPE":0,"CLASSIFICATION_TYPE":"U","NORAD_CAT_ID":48049,"ELEMENT_SET_NO":999,"REV_AT_EPOCH":24937,"BSTAR":0.0004946800000000001,"MEAN_MOTION_DOT":1.93e-06,"MEAN_MOTION_DDOT":0.0},{"OBJECT_NAME":"ONEWEB-0113","OBJECT_ID":"2021-025J","EPOCH":"2026-05-16T22:41:04.864416","MEAN_MOTION":13.13895965,"ECCENTRICITY":0.000185,"INCLINATION":87.8946,"RA_OF_ASC_NODE":326.3654,"ARG_OF_PERICENTER":91.7719,"MEAN_ANOMALY":268.3623,"EPHEMERIS_TYPE":0,"CLASSIFICATION_TYPE":"U","NORAD_CAT_ID":48050,"ELEMENT_SET_NO":999,"REV_AT_EPOCH":24950,"BSTAR":-0.00068268,"MEAN_MOTION_DOT":-2.38e-06,"MEAN_MOTION_DDOT":0.0},{"OBJECT_NAME":"ONEWEB-0112","OBJECT_ID":"2021-025K","EPOCH":"2026-05-16T22:52:24.116160","MEAN_MOTION":13.13471304,"ECCENTRICITY":0.0001552,"INCLINATION":87.895,"RA_OF_ASC_NODE":326.4294,"ARG_OF_PERICENTER":89.0193,"MEAN_ANOMALY":271.1114,"EPHEMERIS_TYPE":0,"CLASSIFICATION_TYPE":"U","NORAD_CAT_ID":48051,"ELEMENT_SET_NO":999,"REV_AT_EPOCH":24949,"BSTAR":-0.00030927,"MEAN_MOTION_DOT":-1e-06,"MEAN_MOTION_DDOT":0.0},{"OBJECT_NAME":"ONEWEB-0156","OBJECT_ID":"2021-025L","EPOCH":"2026-05-16T23:04:35.200128","MEAN_MOTION":13.13471908,"ECCENTRICITY":0.0001757,"INCLINATION":87.8949,"RA_OF_ASC_NODE":326.4379,"ARG_OF_PERICENTER":94.4121,"MEAN_ANOMALY":265.7209,"EPHEMERIS_TYPE":0,"CLASSIFICATION_TYPE":"U","NORAD_CAT_ID":48052,"ELEMENT_SET_NO":999,"REV_AT_EPOCH":24947,"BSTAR":0.00032425,"MEAN_MOTION_DOT":1.31e-06,"MEAN_MOTION_DDOT":0.0},{"OBJECT_NAME":"ONEWEB-0161","OBJECT_ID":"2021-025M","EPOCH":"2026-05-17T02:07:23.904768","MEAN_MOTION":13.13469608,"ECCENTRICITY":0.0001692,"INCLINATION":87.8942,"RA_OF_ASC_NODE":326.4158,"ARG_OF_PERICENTER":95.2535,"MEAN_ANOMALY":264.8788,"EPHEMERIS_TYPE":0,"CLASSIFICATION_TYPE":"U","NORAD_CAT_ID":48053,"ELEMENT_SET_NO":999,"REV_AT_EPOCH":24942,"BSTAR":-0.001497,"MEAN_MOTION_DOT":-5.34e-06,"MEAN_MOTION_DDOT":0.0},{"OBJECT_NAME":"ONEWEB-0158","OBJECT_ID":"2021-025N","EPOCH":"2026-05-16T23:19:12.078912","MEAN_MOTION":13.13471428,"ECCENTRICITY":0.0001921,"INCLINATION":87.8948,"RA_OF_ASC_NODE":326.4351,"ARG_OF_PERICENTER":80.6677,"MEAN_ANOMALY":279.4669,"EPHEMERIS_TYPE":0,"CLASSIFICATION_TYPE":"U","NORAD_CAT_ID":48054,"ELEMENT_SET_NO":999,"REV_AT_EPOCH":24953,"BSTAR":0.00073724,"MEAN_MOTION_DOT":2.82e-06,"MEAN_MOTION_DDOT":0.0},{"OBJECT_NAME":"ONEWEB-0157","OBJECT_ID":"2021-025P","EPOCH":"2026-05-16T23:55:46.009056","MEAN_MOTION":13.13468092,"ECCENTRICITY":0.0001449,"INCLINATION":87.8956,"RA_OF_ASC_NODE":326.4352,"ARG_OF_PERICENTER":98.9387,"MEAN_ANOMALY":261.1906,"EPHEMERIS_TYPE":0,"CLASSIFICATION_TYPE":"U","NORAD_CAT_ID":48055,"ELEMENT_SET_NO":999,"REV_AT_EPOCH":24947,"BSTAR":-3.0969e-05,"MEAN_MOTION_DOT":1e-08,"MEAN_MOTION_DDOT":0.0},{"OBJECT_NAME":"ONEWEB-0162","OBJECT_ID":"2021-025Q","EPOCH":"2026-05-16T23:21:26.444736","MEAN_MOTION":13.13471722,"ECCENTRICITY":0.0001844,"INCLINATION":87.8948,"RA_OF_ASC_NODE":326.4422,"ARG_OF_PERICENTER":94.3533,"MEAN_ANOMALY":265.7806,"EPHEMERIS_TYPE":0,"CLASSIFICATION_TYPE":"U","NORAD_CAT_ID":48056,"ELEMENT_SET_NO":999,"REV_AT_EPOCH":24944,"BSTAR":0.00078777,"MEAN_MOTION_DOT":3e-06,"MEAN_MOTION_DDOT":0.0},{"OBJECT_NAME":"ONEWEB-0155","OBJECT_ID":"2021-025R","EPOCH":"2026-05-16T23:31:23.402208","MEAN_MOTION":13.13470989,"ECCENTRICITY":0.0001603,"INCLINATION":87.8945,"RA_OF_ASC_NODE":326.4369,"ARG_OF_PERICENTER":89.643,"MEAN_ANOMALY":270.4883,"EPHEMERIS_TYPE":0,"CLASSIFICATION_TYPE":"U","NORAD_CAT_ID":48057,"ELEMENT_SET_NO":999,"REV_AT_EPOCH":24958,"BSTAR":0.00074187,"MEAN_MOTION_DOT":2.84e-06,"MEAN_MOTION_DDOT":0.0},{"OBJECT_NAME":"ONEWEB-0149","OBJECT_ID":"2021-025S","EPOCH":"2026-05-16T22:13:23.794176","MEAN_MOTION":13.13470433,"ECCENTRICITY":0.0001895,"INCLINATION":87.8954,"RA_OF_ASC_NODE":326.4498,"ARG_OF_PERICENTER":95.8183,"MEAN_ANOMALY":264.3162,"EPHEMERIS_TYPE":0,"CLASSIFICATION_TYPE":"U","NORAD_CAT_ID":48058,"ELEMENT_SET_NO":999,"REV_AT_EPOCH":24938,"BSTAR":-0.0005265900000000001,"MEAN_MOTION_DOT":-1.8e-06,"MEAN_MOTION_DDOT":0.0},{"OBJECT_NAME":"ONEWEB-0148","OBJECT_ID":"2021-025T","EPOCH":"2026-05-16T19:30:03.513024","MEAN_MOTION":13.13472033,"ECCENTRICITY":0.0002026,"INCLINATION":87.8941,"RA_OF_ASC_NODE":326.4816,"ARG_OF_PERICENTER":106.4847,"MEAN_ANOMALY":253.6505,"EPHEMERIS_TYPE":0,"CLASSIFICATION_TYPE":"U","NORAD_CAT_ID":48059,"ELEMENT_SET_NO":999,"REV_AT_EPOCH":24949,"BSTAR":0.0006355499999999999,"MEAN_MOTION_DOT":2.45e-06,"MEAN_MOTION_DDOT":0.0},{"OBJECT_NAME":"ONEWEB-0160","OBJECT_ID":"2021-025U","EPOCH":"2026-05-16T19:54:27.707040","MEAN_MOTION":13.13470723,"ECCENTRICITY":0.0002362,"INCLINATION":87.8946,"RA_OF_ASC_NODE":326.4745,"ARG_OF_PERICENTER":77.423,"MEAN_ANOMALY":282.7163,"EPHEMERIS_TYPE":0,"CLASSIFICATION_TYPE":"U","NORAD_CAT_ID":48060,"ELEMENT_SET_NO":999,"REV_AT_EPOCH":24944,"BSTAR":0.0006998400000000001,"MEAN_MOTION_DOT":2.68e-06,"MEAN_MOTION_DDOT":0.0},{"OBJECT_NAME":"ONEWEB-0163","OBJECT_ID":"2021-025V","EPOCH":"2026-05-16T23:11:53.789856","MEAN_MOTION":13.13469076,"ECCENTRICITY":0.0001551,"INCLINATION":87.894,"RA_OF_ASC_NODE":326.44,"ARG_OF_PERICENTER":95.6129,"MEAN_ANOMALY":264.5177,"EPHEMERIS_TYPE":0,"CLASSIFICATION_TYPE":"U","NORAD_CAT_ID":48061,"ELEMENT_SET_NO":999,"REV_AT_EPOCH":24958,"BSTAR":0.00057949,"MEAN_MOTION_DOT":2.24e-06,"MEAN_MOTION_DDOT":0.0}]